STARLINK-6330           
1 57239U 23094X   24197.06004067  .00000832  00000+0  76658-4 0  9998
2 57239  43.0048  64.4370 0001227 269.8361  90.2341 15.02533649 56657
STARLINK-6351           
1 57240U 23094Y   24197.31744218  .00001085  00000+0  95340-4 0  9997
2 57240  43.0043  50.7828 0001362 265.6100  94.4586 15.02539830 56830
STARLINK-6349           
1 57241U 23094Z   24196.86542103  .00001301  00000+0  11134-3 0  9995
2 57241  43.0049  53.4138 0001029 277.4052  82.6674 15.02536633 56585
STARLINK-6306           
1 57242U 23094AA  24197.32742822 -.00000395  00000+0 -14153-4 0  9997
2 57242  43.0062  50.8558 0001915 265.9444  94.1179 15.02543585 56839
STARLINK-6346           
1 57243U 23094AB  24196.93078605  .00001300  00000+0  11126-3 0  9996
2 57243  43.0025  53.0438 0001155 275.5571  84.5140 15.02539867 56777
STARLINK-5610           
1 57244U 23094AC  24196.92080097 -.00000459  00000+0 -18891-4 0  9997
2 57244  43.0037  52.9651 0001545 266.6161  93.4505 15.02534881 56590
STARLINK-5587           
1 57245U 23094AD  24197.32300084 -.00000442  00000+0 -17683-4 0  9994
2 57245  43.0058  50.8221 0000845 296.2799  63.7956 15.02533774 56839
STARLINK-5049           
1 57246U 23094AE  24196.89527236  .00000181  00000+0  28485-4 0  9996
2 57246  43.0031  52.7746 0001125 279.1982  80.8733 15.02537360 56771
STARLINK-5039           
1 57247U 23094AF  24197.31634703 -.00000001  00000+0  14959-4 0  9996
2 57247  43.0009  50.7742 0000521 294.7198  65.3590 15.02526644 56831
STARLINK-5514           
1 57248U 23094AG  24196.91414262  .00000482  00000+0  50788-4 0  9990
2 57248  43.0042  52.9165 0001371 268.0544  92.0141 15.02532799 56595
STARLINK-5517           
1 57249U 23094AH  24197.31077149  .00001333  00000+0  11368-3 0  9991
2 57249  43.0038  50.6855 0001355 268.3852  91.6835 15.02547626 56836
STARLINK-5488           
1 57250U 23094AJ  24197.30079477  .00002777  00000+0  22045-3 0  9995
2 57250  43.0052  50.6583 0001357 264.4843  95.5844 15.02551429 56830
STARLINK-5513           
1 57251U 23094AK  24197.30745262  .00001369  00000+0  11635-3 0  9997
2 57251  43.0057  50.7082 0001441 273.8056  86.2622 15.02543959 56835
STARLINK-5511           
1 57252U 23094AL  24196.89416066 -.00000235  00000+0 -23432-5 0  9991
2 57252  43.0051  52.7672 0001310 269.5116  90.5576 15.02538797 56774
STARLINK-5516           
1 57253U 23094AM  24197.30635004 -.00001612  00000+0 -10429-3 0  9994
2 57253  43.0039  50.6975 0001377 278.3470  81.7216 15.02530174 56839
STARLINK-5490           
1 57254U 23094AN  24196.68917450  .00000724  00000+0  68645-4 0  9998
2 57254  43.0057  53.8092 0001540 271.6533  88.4132 15.02538993 56561
STARLINK-5481           
1 57255U 23094AP  24197.28968990  .00002741  00000+0  21785-3 0  9995
2 57255  43.0026  50.5697 0001959 265.0297  95.0321 15.02548992 56835
STARLINK-5512           
1 57256U 23094AQ  24196.87085788  .00003224  00000+0  25372-3 0  9998
2 57256  43.0065  52.6096 0001723 265.2903  94.7742 15.02526758 56772
STARLINK-5503           
1 57257U 23094AR  24196.89749084  .00001280  00000+0  10982-3 0  9998
2 57257  43.0038  52.7932 0001534 274.2115  85.8552 15.02534824 56771
STARLINK-5476           
1 57258U 23094AS  24197.28414728  .00004318  00000+0  33443-3 0  9999
2 57258  43.0027  50.5299 0001488 270.2221  89.8450 15.02543531 56837
STARLINK-5026           
1 57260U 23094AU  24196.94509630  .00000699  00000+0  66852-4 0  9990
2 57260  43.0062  52.2859 0002067 278.2341  81.8266 15.02537648 56788
STARLINK-5485           
1 57261U 23094AV  24197.01132126 -.00000192  00000+0  88866-6 0  9992
2 57261  43.0059  64.9326 0001430 268.9470  91.1208 15.02537563 56704
STARLINK-5504           
1 57262U 23094AW  24197.28636290  .00000732  00000+0  69283-4 0  9992
2 57262  43.0034  50.5486 0001379 256.1296 103.9393 15.02541687 56836
STARLINK-5509           
1 57263U 23094AX  24197.34259514  .00001249  00000+0  10748-3 0  9995
2 57263  43.0051  63.1155 0001311 278.7208  81.3486 15.02543347 56699
STARLINK-5858           
1 57264U 23094AY  24196.87418528  .00000247  00000+0  33338-4 0  9993
2 57264  43.0046  52.6152 0001554 264.8048  95.2617 15.02531698 56776
STARLINK-5890           
1 57265U 23094AZ  24196.87195810  .00006121  00000+0  46761-3 0  9990
2 57265  43.0028  52.5987 0001238 275.7359  84.3342 15.02548902 56597
STARLINK-30198          
1 57290U 23096A   24196.87317551  .00000460  00000+0  49098-4 0  9995
2 57290  43.0018 259.0859 0001315 277.2033  82.8660 15.02535902 55836
STARLINK-30239          
1 57291U 23096B   24197.53462598  .00001177  00000+0  10217-3 0  9998
2 57291  43.0024 255.4507 0001413 276.7895  83.2786 15.02534601 55933
STARLINK-30210          
1 57292U 23096C   24197.46479984  .00003470  00000+0  27171-3 0  9993
2 57292  43.0043 255.7886 0000966 268.2615  91.8117 15.02555484 55942
STARLINK-30202          
1 57293U 23096D   24197.15187037  .00031389  00000+0  77570-3 0  9993
2 57293  42.9932 204.8946 0031823  87.0212 273.4285 15.39382548 56658
STARLINK-30235          
1 57294U 23096E   24196.85985416  .00000795  00000+0  73890-4 0  9996
2 57294  43.0015 258.9865 0001294 270.3079  89.7616 15.02536152 56939
STARLINK-30206          
1 57295U 23096F   24197.47480102  .00000013  00000+0  16031-4 0  9995
2 57295  43.0039 255.8300 0001335 275.7962  84.2729 15.02539535 55934
STARLINK-30238          
1 57296U 23096G   24197.45482970  .00000201  00000+0  29947-4 0  9998
2 57296  43.0012 255.7102 0001200 273.6961  86.3744 15.02532560 55922
STARLINK-30234          
1 57297U 23096H   24197.18558724 -.00000400  00000+0 -14554-4 0  9991
2 57297  43.0011 257.1322 0001208 279.0302  81.0403 15.02534837 55887
STARLINK-30241          
1 57298U 23096J   24197.15894265  .00001207  00000+0  10437-3 0  9991
2 57298  42.9997 256.9144 0001339 275.2660  84.8030 15.02538565 55898
STARLINK-30199          
1 57299U 23096K   24197.51464061  .00002844  00000+0  22551-3 0  9997
2 57299  43.0023 255.2998 0001258 279.7134  80.3566 15.02539956 56043
STARLINK-30236          
1 57300U 23096L   24197.17892646  .00000659  00000+0  63829-4 0  9992
2 57300  43.0021 257.0786 0001230 272.8971  87.1730 15.02536824 55893
STARLINK-30201          
1 57301U 23096M   24197.17558418  .00002094  00000+0  17001-3 0  9994
2 57301  43.0030 257.0527 0001278 269.1503  90.9193 15.02550779 55888
STARLINK-30233          
1 57302U 23096N   24197.50465543  .00000702  00000+0  67042-4 0  9993
2 57302  43.0030 255.2004 0001518 270.1545  89.9123 15.02532277 55945
STARLINK-30232          
1 57303U 23096P   24196.50416287  .00000788  00000+0  73405-4 0  9998
2 57303  43.0029 260.6314 0001364 266.0388  94.0298 15.02535200 55798
STARLINK-30211          
1 57304U 23096Q   24197.16560968 -.00000645  00000+0 -32706-4 0  9991
2 57304  43.0040 256.9694 0001389 269.0077  91.0606 15.02533025 55890
STARLINK-30177          
1 57305U 23096R   24197.42818866 -.00000326  00000+0 -90979-5 0  9997
2 57305  43.0010 255.5082 0001258 270.7666  89.3032 15.02535591 55929
STARLINK-30200          
1 57306U 23096S   24196.56840548  .00000570  00000+0  57304-4 0  9997
2 57306  43.0045 260.2313 0002262 261.1633  98.8953 15.02537033 55809
STARLINK-30209          
1 57307U 23096T   24196.88970447  .00000315  00000+0  38353-4 0  9995
2 57307  43.0010 258.3362 0001170 273.7226  86.3482 15.02534634 55856
STARLINK-30194          
1 57308U 23096U   24196.88637603  .00000263  00000+0  34562-4 0  9990
2 57308  43.0019 258.3248 0001295 278.1054  81.9642 15.02537023 55848
STARLINK-30163          
1 57309U 23096V   24196.88303221 -.00006912  00000+0 -49672-3 0  9993
2 57309  43.0038 258.3001 0001150 259.7297 100.3416 15.02564022 56004
STARLINK-30184          
1 57310U 23096W   24196.83042314  .00000189  00000+0  29033-4 0  9991
2 57310  43.0022 232.9021 0001237 272.2941  87.7760 15.02536854 56339
STARLINK-30175          
1 57311U 23096X   24196.87971785  .00002048  00000+0  16665-3 0  9991
2 57311  43.0010 258.2722 0001395 280.0940  79.9745 15.02538584 55952
STARLINK-6290           
1 57328U 23099A   24196.60894009 -.00000309  00000+0 -78053-5 0  9997
2 57328  43.0037 286.2909 0001322 263.0347  97.0345 15.02534182 56137
STARLINK-6138           
1 57329U 23099B   24196.66541936  .00000281  00000+0  35858-4 0  9994
2 57329  43.0031 285.8489 0001143 274.9876  85.0836 15.02539366 55409
STARLINK-6212           
1 57330U 23099C   24197.53630430  .00002884  00000+0  22854-3 0  9993
2 57330  42.9988 281.2055 0001276 269.4854  90.5842 15.02523233 56271
STARLINK-6234           
1 57331U 23099D   24197.53519028 -.00000892  00000+0 -50939-4 0  9998
2 57331  43.0029 281.1973 0001542 274.8004  85.2662 15.02527421 56017
STARLINK-5831           
1 57332U 23099E   24197.53296598  .00001101  00000+0  96593-4 0  9991
2 57332  43.0045 281.1865 0001066 288.5558  71.5168 15.02520008 56274
STARLINK-5585           
1 57333U 23099F   24197.53185239  .00000976  00000+0  87293-4 0  9997
2 57333  43.0064 281.1750 0001195 276.4430  83.6276 15.02537099 56167
STARLINK-5589           
1 57334U 23099G   24197.52630222 -.00000245  00000+0 -30574-5 0  9996
2 57334  43.0027 281.1291 0000878 275.9348  84.1394 15.02538956 56166
STARLINK-6316           
1 57335U 23099H   24197.51520930  .00003142  00000+0  24758-3 0  9992
2 57335  43.0028 281.0510 0001639 265.0314  95.0341 15.02536256 56276
STARLINK-6320           
1 57336U 23099J   24197.28579925  .00000208  00000+0  30462-4 0  9995
2 57336  43.0009 281.8903 0000864 279.5297  80.5447 15.02537988 56245
STARLINK-6322           
1 57337U 23099K   24197.52297616  .00001411  00000+0  11947-3 0  9990
2 57337  43.0034 281.1012 0001173 254.8483 105.2230 15.02538915 56274
STARLINK-6374           
1 57338U 23099L   24196.65432471  .00005073  00000+0  39032-3 0  9997
2 57338  43.0020 285.7632 0001696 277.7182  82.3468 15.02541179 55406
